OBJECT_NAME,OBJECT_ID,EPOCH,MEAN_MOTION,ECCENTRICITY,INCLINATION,RA_OF_ASC_NODE,ARG_OF_PERICENTER,MEAN_ANOMALY,EPHEMERIS_TYPE,CLASSIFICATION_TYPE,NORAD_CAT_ID,ELEMENT_SET_NO,REV_AT_EPOCH,BSTAR,MEAN_MOTION_DOT,MEAN_MOTION_DDOT
STARLINK-4091,2022-062A,2024-08-15T20:38:30.392736,15.08856513,.0002123,53.2161,76.8649,85.8526,274.2709,0,U,52830,999,11960,.24447E-3,.3606E-4,0
STARLINK-4089,2022-062B,2024-08-15T20:27:53.249760,15.08854027,.0001574,53.2166,76.7098,85.0143,275.1028,0,U,52831,999,11960,.81501E-3,.12712E-3,0
STARLINK-4083,2022-062C,2024-08-15T20:22:35.208768,15.08855158,.0001598,53.2177,76.7234,91.4352,268.6823,0,U,52832,999,11960,.39857E-3,.6064E-4,0
STARLINK-4086,2022-062D,2024-08-15T23:28:03.145152,15.08858785,.0001598,53.2161,76.1478,88.1589,271.9586,0,U,52833,999,11962,.33571E-3,.5062E-4,0
STARLINK-4108,2022-062E,2024-08-15T21:42:04.316832,15.08858166,.0001786,53.2166,76.4787,95.8702,264.2494,0,U,52834,999,11961,.45755E-3,.7005E-4,0
STARLINK-4080,2022-062F,2024-08-15T21:36:46.727712,15.08872318,.00015,53.2161,76.4951,87.0907,273.0257,0,U,52835,999,11961,.12046E-2,.18952E-3,0
STARLINK-4043,2022-062G,2024-08-15T20:39:55.233216,15.08843010,.0001664,53.2165,76.9883,88.0264,272.0918,0,U,52836,999,11960,.72536E-3,.11276E-3,0
STARLINK-4036,2022-062H,2024-08-15T21:20:52.253088,15.08863447,.0001446,53.2150,76.5424,82.5644,277.5512,0,U,52837,999,11961,.15007E-2,.23692E-3,0
STARLINK-4092,2022-062J,2024-08-15T21:26:10.821984,15.08853189,.0001576,53.2147,76.5149,86.9785,273.1387,0,U,52838,999,11961,.70377E-3,.10934E-3,0
STARLINK-4048,2022-062K,2024-08-15T21:10:16.481280,15.08865476,.0001895,53.2169,76.5775,83.1992,276.9216,0,U,52839,999,11961,.19136E-2,.3032E-3,0
STARLINK-4049,2022-062L,2024-08-15T07:13:01.648128,15.08871541,.0001483,53.2165,79.3023,81.3389,278.7771,0,U,52840,999,12001,.15084E-2,.2382E-3,0
STARLINK-4065,2022-062M,2024-08-15T20:54:22.348800,15.08874590,.0000576,53.2154,76.6238,356.5920,3.5068,0,U,52841,999,11961,.11858E-2,.18652E-3,0
STARLINK-4046,2022-062N,2024-08-15T21:15:34.043616,15.08848004,.0001894,53.2174,76.4804,101.0991,259.0215,0,U,52842,999,11961,.46216E-3,.7076E-4,0
STARLINK-4188,2022-062P,2024-08-14T20:52:59.988000,15.08883744,.0001353,53.2174,81.1171,105.0032,255.1110,0,U,52843,999,11995,.12128E-2,.19089E-3,0
STARLINK-4208,2022-062Q,2024-08-15T21:04:58.494720,15.08847625,.0001539,53.2168,76.5944,90.9190,269.1978,0,U,52844,999,11961,.38864E-3,.5904E-4,0
STARLINK-4168,2022-062R,2024-08-15T20:49:05.520000,15.08888000,.0002257,53.2182,76.7040,81.6730,278.4518,0,U,52845,999,11961,.21957E-2,.34876E-3,0
STARLINK-4212,2022-062S,2024-08-15T20:50:27.519648,15.08826450,.0001797,53.2180,76.6469,94.2632,265.8566,0,U,52846,999,11961,.46222E-3,.7073E-4,0
STARLINK-4206,2022-062T,2024-08-15T20:33:11.729664,15.08814680,.0002221,53.2178,76.6903,88.0601,272.0646,0,U,52847,999,11961,.40931E-3,.6228E-4,0
