STARLINK-4091           
1 52830U 22062A   24228.86007399  .00003606  00000+0  24447-3 0  9998
2 52830  53.2161  76.8649 0002123  85.8526 274.2709 15.08856513119600
STARLINK-4089           
1 52831U 22062B   24228.85269965  .00012712  00000+0  81501-3 0  9999
2 52831  53.2166  76.7098 0001574  85.0143 275.1028 15.08854027119601
STARLINK-4083           
1 52832U 22062C   24228.84901862  .00006064  00000+0  39857-3 0  9998
2 52832  53.2177  76.7234 0001598  91.4352 268.6823 15.08855158119601
STARLINK-4086           
1 52833U 22062D   24228.97781418  .00005062  00000+0  33571-3 0  9990
2 52833  53.2161  76.1478 0001598  88.1589 271.9586 15.08858785119628
STARLINK-4108           
1 52834U 22062E   24228.90421663  .00007005  00000+0  45755-3 0  9993
2 52834  53.2166  76.4787 0001786  95.8702 264.2494 15.08858166119616
STARLINK-4080           
1 52835U 22062F   24228.90054083  .00018952  00000+0  12046-2 0  9991
2 52835  53.2161  76.4951 0001500  87.0907 273.0257 15.08872318119619
STARLINK-4043           
1 52836U 22062G   24228.86105594  .00011276  00000+0  72536-3 0  9994
2 52836  53.2165  76.9883 0001664  88.0264 272.0918 15.08843010119600
STARLINK-4036           
1 52837U 22062H   24228.88949367  .00023692  00000+0  15007-2 0  9995
2 52837  53.2150  76.5424 0001446  82.5644 277.5512 15.08863447119618
STARLINK-4092           
1 52838U 22062J   24228.89318081  .00010934  00000+0  70377-3 0  9997
2 52838  53.2147  76.5149 0001576  86.9785 273.1387 15.08853189119611
STARLINK-4048           
1 52839U 22062K   24228.88213520  .00030320  00000+0  19136-2 0  9995
2 52839  53.2169  76.5775 0001895  83.1992 276.9216 15.08865476119618
STARLINK-4049           
1 52840U 22062L   24228.30071352  .00023820  00000+0  15084-2 0  9994
2 52840  53.2165  79.3023 0001483  81.3389 278.7771 15.08871541120018
STARLINK-4065           
1 52841U 22062M   24228.87109200  .00018652  00000+0  11858-2 0  9993
2 52841  53.2154  76.6238 0000576 356.5920   3.5068 15.08874590119619
STARLINK-4046           
1 52842U 22062N   24228.88581069  .00007076  00000+0  46216-3 0  9997
2 52842  53.2174  76.4804 0001894 101.0991 259.0215 15.08848004119617
STARLINK-4188           
1 52843U 22062P   24227.87013875  .00019089  00000+0  12128-2 0  9992
2 52843  53.2174  81.1171 0001353 105.0032 255.1110 15.08883744119956
STARLINK-4208           
1 52844U 22062Q   24228.87845480  .00005904  00000+0  38864-3 0  9996
2 52844  53.2168  76.5944 0001539  90.9190 269.1978 15.08847625119617
STARLINK-4168           
1 52845U 22062R   24228.86742500  .00034876  00000+0  21957-2 0  9999
2 52845  53.2182  76.7040 0002257  81.6730 278.4518 15.08888000119613
STARLINK-4212           
1 52846U 22062S   24228.86837407  .00007073  00000+0  46222-3 0  9993
2 52846  53.2180  76.6469 0001797  94.2632 265.8566 15.08826450119619
STARLINK-4206           
1 52847U 22062T   24228.85638576  .00006228  00000+0  40931-3 0  9991
2 52847  53.2178  76.6903 0002221  88.0601 272.0646 15.08814680119611
